[{"OBJECT_NAME":"GLOBALSTAR M081","OBJECT_ID":"2011-033E","EPOCH":"2026-03-09T12:47:44.541024","MEAN_MOTION":12.62262851,"ECCENTRICITY":6.418e-5,"INCLINATION":51.9952,"RA_OF_ASC_NODE":139.0592,"ARG_OF_PERICENTER":126.6073,"MEAN_ANOMALY":342.2237,"EPHEMERIS_TYPE":0,"CLASSIFICATION_TYPE":"U","NORAD_CAT_ID":37743,"ELEMENT_SET_NO":999,"REV_AT_EPOCH":67735,"BSTAR":0.00012653843,"MEAN_MOTION_DOT":-8.1e-7,"MEAN_MOTION_DDOT":0},{"OBJECT_NAME":"GLOBALSTAR M068","OBJECT_ID":"2007-048D","EPOCH":"2026-03-09T16:52:51.743424","MEAN_MOTION":12.62842011,"ECCENTRICITY":0.0001142,"INCLINATION":51.9873,"RA_OF_ASC_NODE":212.8603,"ARG_OF_PERICENTER":48.4906,"MEAN_ANOMALY":53.9801,"EPHEMERIS_TYPE":0,"CLASSIFICATION_TYPE":"U","NORAD_CAT_ID":32266,"ELEMENT_SET_NO":999,"REV_AT_EPOCH":85110,"BSTAR":0.00011881519,"MEAN_MOTION_DOT":-8.2e-7,"MEAN_MOTION_DDOT":0}]
